{
  "type": "FeatureCollection",
  "features": [
    {
      "type": "Feature",
      "properties": {
        "norad_id": 34765,
        "name": "IRIDIUM 33 DEB",
        "group": "iridium-33-debris",
        "lat": -53.647992076312796,
        "lon": -141.59132615204012,
        "alt_km": 753.659405714392,
        "timestamp": "2025-12-11T05:00:26.693545+00:00",
        "meta_object_name": "IRIDIUM 33 DEB",
        "meta_object_id": "1997-051LJ",
        "meta_epoch": "2025-12-10T22:04:40.043424",
        "meta_mean_motion": 14.40457706,
        "meta_eccentricity": 0.00152474,
        "meta_inclination": 86.3395,
        "meta_ra_of_asc_node": 33.5425,
        "meta_arg_of_pericenter": 217.7654,
        "meta_mean_anomaly": 319.5905,
        "meta_ephemeris_type": 0,
        "meta_classification_type": "U",
        "meta_norad_cat_id": 34765,
        "meta_element_set_no": 999,
        "meta_rev_at_epoch": 87587,
        "meta_bstar": 0.00061078711,
        "meta_mean_motion_dot": 1.962e-05,
        "meta_mean_motion_ddot": 0,
        "tle_line1": "1 34765U 97051LJ  25344.91990791  .00001962  00000+0  61079-3 0  9993",
        "tle_line2": "2 34765  86.3395  33.5425 0015247 217.7654 319.5905 14.40457706875879"
      },
      "geometry": {
        "type": "Point",
        "coordinates": [
          -141.59132615204012,
          -53.647992076312796
        ]
      }
    },
    {
      "type": "Feature",
      "properties": {
        "norad_id": 34833,
        "name": "IRIDIUM 33 DEB",
        "group": "iridium-33-debris",
        "lat": -84.84538710981582,
        "lon": 7.281857200655332,
        "alt_km": 740.6666615812328,
        "timestamp": "2025-12-11T05:00:26.693555+00:00",
        "meta_object_name": "IRIDIUM 33 DEB",
        "meta_object_id": "1997-051MH",
        "meta_epoch": "2025-12-10T04:50:56.700096",
        "meta_mean_motion": 14.52352974,
        "meta_eccentricity": 0.0021797,
        "meta_inclination": 86.3927,
        "meta_ra_of_asc_node": 52.0875,
        "meta_arg_of_pericenter": 106.3594,
        "meta_mean_anomaly": 307.6921,
        "meta_ephemeris_type": 0,
        "meta_classification_type": "U",
        "meta_norad_cat_id": 34833,
        "meta_element_set_no": 999,
        "meta_rev_at_epoch": 87678,
        "meta_bstar": 0.0011722,
        "meta_mean_motion_dot": 4.804e-05,
        "meta_mean_motion_ddot": 0,
        "tle_line1": "1 34833U 97051MH  25344.20204514  .00004804  00000+0  11722-2 0  9999",
        "tle_line2": "2 34833  86.3927  52.0875 0021797 106.3594 307.6921 14.52352974876785"
      },
      "geometry": {
        "type": "Point",
        "coordinates": [
          7.281857200655332,
          -84.84538710981582
        ]
      }
    },
    {
      "type": "Feature",
      "properties": {
        "norad_id": 34870,
        "name": "IRIDIUM 33 DEB",
        "group": "iridium-33-debris",
        "lat": 66.45701358718651,
        "lon": 126.26918317349217,
        "alt_km": 631.4950003755894,
        "timestamp": "2025-12-11T05:00:26.693565+00:00",
        "meta_object_name": "IRIDIUM 33 DEB",
        "meta_object_id": "1997-051MQ",
        "meta_epoch": "2025-12-10T16:16:47.325792",
        "meta_mean_motion": 14.76360658,
        "meta_eccentricity": 0.00158788,
        "meta_inclination": 86.3108,
        "meta_ra_of_asc_node": 315.0279,
        "meta_arg_of_pericenter": 190.0668,
        "meta_mean_anomaly": 346.5866,
        "meta_ephemeris_type": 0,
        "meta_classification_type": "U",
        "meta_norad_cat_id": 34870,
        "meta_element_set_no": 999,
        "meta_rev_at_epoch": 88880,
        "meta_bstar": 0.0023954817,
        "meta_mean_motion_dot": 0.00016709,
        "meta_mean_motion_ddot": 0,
        "tle_line1": "1 34870U 97051MQ  25344.67832553  .00016709  00000+0  23955-2 0  9999",
        "tle_line2": "2 34870  86.3108 315.0279 0015878 190.0668 346.5866 14.76360658888802"
      },
      "geometry": {
        "type": "Point",
        "coordinates": [
          126.26918317349217,
          66.45701358718651
        ]
      }
    },
    {
      "type": "Feature",
      "properties": {
        "norad_id": 34896,
        "name": "IRIDIUM 33 DEB",
        "group": "iridium-33-debris",
        "lat": 10.343949388136625,
        "lon": -31.95649305144256,
        "alt_km": 689.4253324263445,
        "timestamp": "2025-12-11T05:00:26.693575+00:00",
        "meta_object_name": "IRIDIUM 33 DEB",
        "meta_object_id": "1997-051MY",
        "meta_epoch": "2025-12-10T06:18:53.078976",
        "meta_mean_motion": 14.66236202,
        "meta_eccentricity": 0.0024107,
        "meta_inclination": 86.3294,
        "meta_ra_of_asc_node": 327.796,
        "meta_arg_of_pericenter": 223.7133,
        "meta_mean_anomaly": 198.9285,
        "meta_ephemeris_type": 0,
        "meta_classification_type": "U",
        "meta_norad_cat_id": 34896,
        "meta_element_set_no": 999,
        "meta_rev_at_epoch": 87583,
        "meta_bstar": 0.0014714,
        "meta_mean_motion_dot": 8.162e-05,
        "meta_mean_motion_ddot": 0,
        "tle_line1": "1 34896U 97051MY  25344.26311434  .00008162  00000+0  14714-2 0  9999",
        "tle_line2": "2 34896  86.3294 327.7960 0024107 223.7133 198.9285 14.66236202875838"
      },
      "geometry": {
        "type": "Point",
        "coordinates": [
          -31.95649305144256,
          10.343949388136625
        ]
      }
    },
    {
      "type": "Feature",
      "properties": {
        "norad_id": 34926,
        "name": "IRIDIUM 33 DEB",
        "group": "iridium-33-debris",
        "lat": 18.048132877949133,
        "lon": -172.28059945356867,
        "alt_km": 750.7148879773049,
        "timestamp": "2025-12-11T05:00:26.693585+00:00",
        "meta_object_name": "IRIDIUM 33 DEB",
        "meta_object_id": "1997-051NF",
        "meta_epoch": "2025-12-10T20:15:07.777728",
        "meta_mean_motion": 14.54268157,
        "meta_eccentricity": 0.00757354,
        "meta_inclination": 86.132,
        "meta_ra_of_asc_node": 9.1517,
        "meta_arg_of_pericenter": 299.2844,
        "meta_mean_anomaly": 114.4517,
        "meta_ephemeris_type": 0,
        "meta_classification_type": "U",
        "meta_norad_cat_id": 34926,
        "meta_element_set_no": 999,
        "meta_rev_at_epoch": 86429,
        "meta_bstar": 0.0083671144,
        "meta_mean_motion_dot": 0.00037022,
        "meta_mean_motion_ddot": 0,
        "tle_line1": "1 34926U 97051NF  25344.84384002  .00037022  00000+0  83671-2 0  9993",
        "tle_line2": "2 34926  86.1320   9.1517 0075735 299.2844 114.4517 14.54268157864299"
      },
      "geometry": {
        "type": "Point",
        "coordinates": [
          -172.28059945356867,
          18.048132877949133
        ]
      }
    },
    {
      "type": "Feature",
      "properties": {
        "norad_id": 34985,
        "name": "IRIDIUM 33 DEB",
        "group": "iridium-33-debris",
        "lat": -4.494313472832444,
        "lon": 57.246840188136986,
        "alt_km": 764.986207363082,
        "timestamp": "2025-12-11T05:00:26.693596+00:00",
        "meta_object_name": "IRIDIUM 33 DEB",
        "meta_object_id": "1997-051NR",
        "meta_epoch": "2025-12-10T04:10:55.898976",
        "meta_mean_motion": 14.41991528,
        "meta_eccentricity": 0.00204833,
        "meta_inclination": 86.3695,
        "meta_ra_of_asc_node": 57.9739,
        "meta_arg_of_pericenter": 228.6146,
        "meta_mean_anomaly": 160.5649,
        "meta_ephemeris_type": 0,
        "meta_classification_type": "U",
        "meta_norad_cat_id": 34985,
        "meta_element_set_no": 999,
        "meta_rev_at_epoch": 87138,
        "meta_bstar": 0.00097130288,
        "meta_mean_motion_dot": 3.211e-05,
        "meta_mean_motion_ddot": 0,
        "tle_line1": "1 34985U 97051NR  25344.17425809  .00003211  00000+0  97130-3 0  9994",
        "tle_line2": "2 34985  86.3695  57.9739 0020483 228.6146 160.5649 14.41991528871386"
      },
      "geometry": {
        "type": "Point",
        "coordinates": [
          57.246840188136986,
          -4.494313472832444
        ]
      }
    },
    {
      "type": "Feature",
      "properties": {
        "norad_id": 35051,
        "name": "IRIDIUM 33 DEB",
        "group": "iridium-33-debris",
        "lat": -76.97156450217469,
        "lon": -154.34086367094486,
        "alt_km": 748.2185294952942,
        "timestamp": "2025-12-11T05:00:26.693605+00:00",
        "meta_object_name": "IRIDIUM 33 DEB",
        "meta_object_id": "1997-051NX",
        "meta_epoch": "2025-12-10T01:16:41.683872",
        "meta_mean_motion": 14.47578215,
        "meta_eccentricity": 0.00106632,
        "meta_inclination": 86.3242,
        "meta_ra_of_asc_node": 10.0324,
        "meta_arg_of_pericenter": 98.47,
        "meta_mean_anomaly": 261.7712,
        "meta_ephemeris_type": 0,
        "meta_classification_type": "U",
        "meta_norad_cat_id": 35051,
        "meta_element_set_no": 999,
        "meta_rev_at_epoch": 86957,
        "meta_bstar": 0.00086361177,
        "meta_mean_motion_dot": 3.199e-05,
        "meta_mean_motion_ddot": 0,
        "tle_line1": "1 35051U 97051NX  25344.05326023  .00003199  00000+0  86361-3 0  9993",
        "tle_line2": "2 35051  86.3242  10.0324 0010663  98.4700 261.7712 14.47578215869570"
      },
      "geometry": {
        "type": "Point",
        "coordinates": [
          -154.34086367094486,
          -76.97156450217469
        ]
      }
    }
  ]
}